AEROCUBE 12A            
1 43556U 18046C   20342.45244432  .00005089  00000-0  18161-3 0  9993
2 43556  51.6413 353.9626 0007845 191.5490 168.5312 15.30567840133868
AEROCUBE 12B            
1 43557U 18046D   20342.28820447  .00002445  00000-0  94721-4 0  9991
2 43557  51.6419 355.8468 0007813 189.5022 170.5812 15.30168031133770
SIRIUSSAT-1             
1 43595U 98067PG  20342.75619538  .01443681  11949-4  56251-3 0  9998
2 43595  51.6478 107.6942 0008649 343.6026  16.4978 16.23086135132498
SIRIUSSAT-2             
1 43596U 98067PH  20342.82487681  .01608599  11981-4  57179-3 0  9996
2 43596  51.6505 108.2209 0005974  32.1992 327.9786 16.24242983132496
SURFSAT                 
1 43614U 18070B   20342.35833601  .00006511  00000-0  16083-3 0  9998
2 43614  93.0278 226.2281 0016515  37.6575 322.5833 15.40371676125085
CP7 (DAVE)              
1 43615U 18070C   20342.47390245  .00006251  00000-0  15550-3 0  9993
2 43615  93.0281 226.2543 0016656  36.9194 323.3203 15.40160437125098
ELFIN-B                 
1 43616U 18070D   20342.46915366  .00009418  00000-0  21983-3 0  9995
2 43616  93.0238 226.2673 0016890  36.9958 323.2459 15.42055910125164
ELFIN-A                 
1 43617U 18070E   20342.47635732  .00010283  00000-0  23746-3 0  9994
2 43617  93.0293 226.9338 0016163  34.5850 325.6454 15.42385083125178
CUBEBEL-1 (BSUSAT-1)    
1 43666U 18083E   20342.83202513  .00002376  00000-0  11753-3 0  9998
2 43666  97.4747   7.4878 0016359 114.1812  59.0647 15.18678832116920
CICERO 10               
1 43690U 18088A   20342.46135671  .00002586  00000-0  11582-3 0  9992
2 43690  85.0363 324.2985 0016374  42.7502 317.5009 15.20617325115041
IRVINE01                
1 43693U 18088D   20342.39503300  .00006516  00000-0  26705-3 0  9995
2 43693  85.0335 322.4616 0018185  22.6102 337.5937 15.23909597115173
PROXIMA I               
1 43694U 18088E   20342.38658622  .00002551  00000-0  10835-3 0  9995
2 43694  85.0305 322.4427 0019489  14.8484 345.3326 15.22361103115156
PROXIMA II              
1 43696U 18088G   20342.45042248  .00002571  00000-0  10922-3 0  9995
2 43696  85.0305 322.4061 0019514  14.5406 345.6393 15.22361367115151
FACSAT-1                
1 43721U 18096C   20342.77398171  .00004328  00000-0  16123-3 0  9998
2 43721  97.4052  55.3128 0015880 226.9731 282.2737 15.27884613112844
CENTAURI-2              
1 43722U 18096D   20342.24561270  .00005368  00000-0  19488-3 0  9995
2 43722  97.4073  55.2548 0016062 227.7069 132.2810 15.28619221112780
INNOSAT-2               
1 43738U 18096V   20342.76842744  .00007573  00000-0  24950-3 0  9997
2 43738  97.4103  58.5131 0021460 231.3485 225.2419 15.31541101113049
SIRION PATHFINDER-2     
1 43759U 18099B   20342.55866762  .00001144  00000-0  10872-3 0  9992
2 43759  97.6891  51.1049 0013484 331.0374  29.0100 14.95378796109800
CORVUS BC4              
1 43767U 18099K   20342.76508843  .00000317  00000-0  34293-4 0  9992
2 43767  97.6864  50.5260 0010908 336.1065  23.9674 14.94816790109795
MOVE-II                 
1 43780U 18099Y   20342.48532673  .00001544  00000-0  14397-3 0  9999
2 43780  97.6904  51.0341 0012776 342.8875  17.1913 14.95618934109779
SPACEBEE-7              
1 43816U 18099BL  20342.45928802  .00000762  00000-0  73229-4 0  9990
2 43816  97.6914  51.5032 0012447 325.0586  34.9817 14.95870258109352
SPACEBEE-5              
1 43817U 18099BM  20342.46469497  .00002302  00000-0  20634-3 0  9995
2 43817  97.6975  52.2713 0012010 323.0083  37.0310 14.96726035109389
SPACEBEE-6              
1 43818U 18099BN  20342.46431854  .00001323  00000-0  12253-3 0  9992
2 43818  97.6933  51.7435 0012287 324.3247  35.7152 14.96133277109515
SHIELDS 1               
1 43850U 18104B   20342.50728319  .00001225  00000-0  52342-4 0  9990
2 43850  85.0310  60.9260 0016014 146.9991 213.2254 15.21592599109785
STF-1                   
1 43852U 18104D   20342.52094253  .00002737  00000-0  11871-3 0  9997
2 43852  85.0346  61.5540 0015185 160.6549 199.5272 15.21756030109760
ZACUBE-2                
1 43907U 18111AH  20342.85771383  .00001385  00000-0  58347-4 0  9996
2 43907  97.2488 237.2280 0019411 250.3011 174.0358 15.24837792108437
LUME 1                  
1 43908U 18111AJ  20342.77517433  .00002770  00000-0  11157-3 0  9998
2 43908  97.2495 237.4599 0019210 248.8432 111.0753 15.25520606108442
AOBA VELOX-IV           
1 43940U 19003J   20342.37173197  .00004199  00000-0  16593-3 0  9992
2 43940  97.2069  27.5688 0022433 335.0078  25.0073 15.25801042105002
CATSAT-2                
1 44029U 98067PV  20342.52107394  .00042002  00000-0  27671-3 0  9995
2 44029  51.6372 154.2287 0000911  19.9891 340.1144 15.75208824105692
DELPHINI                
1 44030U 98067PW  20342.55787872  .00087765  00000-0  49602-3 0  9998
2 44030  51.6301 150.4938 0001341 302.9896  57.0976 15.78377826105717
UNITE                   
1 44031U 98067PX  20342.56331132  .00026566  00000-0  25676-3 0  9991
2 44031  51.6359 167.2514 0001336  11.7058 348.3969 15.66245515105495
CATSAT-1                
1 44033U 98067PZ  20342.77450480  .00046625  00000-0  30630-3 0  9998
2 44033  51.6372 152.9311 0000962  10.0212 350.0806 15.75227347105646
RAAVANA-1               
1 44329U 98067QE  20341.98261437  .00030939  00000-0  33625-3 0  9998
2 44329  51.6357 186.7162 0004415 271.5157  88.5332 15.63180014 83935
UGUISU                  
1 44330U 98067QF  20342.13505310  .00031194  00000-0  34092-3 0  9992
2 44330  51.6345 186.1887 0004357 272.1370  87.9126 15.63032518 83930
NEPALISAT-1             
1 44331U 98067QG  20342.29330683  .00029251  00000-0  31805-3 0  9999
2 44331  51.6341 184.9973 0004385 275.8594  84.1900 15.63198816 83975
SPOOQY-1                
1 44332U 98067QH  20341.86502869  .00031235  00000-0  34275-3 0  9998
2 44332  51.6351 187.4017 0003483 274.8462  85.2135 15.62931323 83862
SPACEBEE-9              
1 44370U 19037F   20342.69890352  .00023479  00000-0  44967-3 0  9999
2 44370  45.0034 224.9102 0012610 146.4323 213.7369 15.47602265 81399
SPACEBEE-8              
1 44371U 19037G   20342.81801484  .00059250  00000-0  79063-3 0  9993
2 44371  45.0033 209.7514 0012265 179.1107 180.9811 15.57234284 81565
IOD-1 GEMS              
1 44385U 98067QK  20342.82624592  .00072701  00000-0  58022-3 0  9990
2 44385  51.6354 175.8820 0003813 227.8880 132.1793 15.70460500 81611
MOVE-IIB                
1 44398U 19038N   20342.61758051  .00003534  00000-0  20338-3 0  9997
2 44398  97.5583 301.9025 0022990 250.7984 109.0761 15.12885751 78758
SONATE                  
1 44400U 19038Q   20342.57464630  .00001237  00000-0  75076-4 0  9991
2 44400  97.5639 301.8444 0023418 249.8581 110.0126 15.12200330 78735
LUCKY-7                 
1 44406U 19038W   20342.55794803  .00001648  00000-0  97926-4 0  9997
2 44406  97.5638 301.9944 0022900 248.6002 111.2785 15.12517500 78730
BEESAT 9                
1 44412U 19038AC  20342.41108796  .00001933  00000-0  11372-3 0  9996
2 44412  97.5626 301.8368 0020804 255.0216 104.8712 15.12696920 78410
JAISAT-1                
1 44419U 19038F   20342.44223504  .00002591  00000-0  14919-3 0  9992
2 44419  97.5629 302.2641 0019675 253.3800 106.5270 15.13180631 78756
SWIATOWID               
1 44426U 98067QL  20342.74296255  .00091106  00000-0  63969-3 0  9994
2 44426  51.6349 173.6433 0004563 221.3859 197.9783 15.73398675 81653
KRAKSAT                 
1 44427U 98067QM  20342.86465611  .00019987  00000-0  25112-3 0  9997
2 44427  51.6392 188.7146 0003200 217.3818 238.8359 15.59680297 81503
VCC A                   
1 44428U 98067QN  20342.18469757  .00029531  00000-0  33300-3 0  9992
2 44428  51.6377 188.1200 0002616 227.5457 132.5316 15.62262673 81459
ENTRYSAT                
1 44429U 98067QP  20342.57049552  .00035589  00000-0  36505-3 0  9993
2 44429  51.6344 183.1356 0002912 220.6532 139.4246 15.64586715 81555
VCC C                   
1 44430U 98067QQ  20342.53418857  .00049842  00000-0  44613-3 0  9995
2 44430  51.6344 179.8941 0002779 223.7130 136.3647 15.67832874 80427
VCC B                   
1 44431U 98067QR  20342.30428248  .00028232  00000-0  31686-3 0  9992
2 44431  51.6359 187.3781 0002707 229.5942 130.4816 15.62408475 81410
DUCHIFAT-3              
1 44854U 19089C   20342.73474236  .00000902  00000-0  78981-4 0  9997
2 44854  36.9631 154.1911 0008957  15.7779 344.3224 14.99238041 54318
EYESAT-NANO             
1 44877U 19092E   20342.55532332  .00002737  00000-0  14040-3 0  9991
2 44877  97.4548 163.0637 0014483 133.1148 227.1300 15.17292825 53832
ORBITAL FACTORY 2 (OF-2)
1 45113U 19071C   20342.22233180  .00006203  00000-0  19476-3 0  9995
2 45113  51.6422 248.5165 0011972 322.2688  37.7454 15.34300812 47646
M2 PATHFINDER           
1 45727U 20037E   20342.39028729  .00000973  00000-0  10313-3 0  9998
2 45727  97.7060 158.5027 0014381  87.0337 273.2626 14.91277315 23798
NETSAT-4                
1 46504U 20068U   20342.57072622  .00001763  00000-0  13940-3 0  9994
2 46504  97.6709 275.2438 0010997  29.6223 330.5632 15.01899170 10431
NETSAT-3                
1 46505U 20068V   20342.57254484  .00001760  00000-0  13935-3 0  9994
2 46505  97.6690 275.2366 0010781  30.7447 329.4416 15.01855316 10445
NETSAT-1                
1 46506U 20068W   20342.57453155  .00001783  00000-0  14122-3 0  9995
2 46506  97.6683 275.2325 0010688  31.4855 328.7029 15.01810519 10448
NETSAT-2                
1 46507U 20068X   20342.50860122  .00001665  00000-0  13225-3 0  9997
2 46507  97.6680 275.1675 0010960  31.6148 328.5724 15.01790412 10385
SPOC                    
1 46921U 98067RR  20342.51571825  .00010677  00000-0  18931-3 0  9993
2 46921  51.6418 210.5360 0002969  94.4558 265.6771 15.50815273  5047
BOBCAT-1                
1 46922U 98067RS  20342.70755857  .00014762  00000-0  25670-3 0  9991
2 46922  51.6421 209.5681 0002739 101.0671 259.0627 15.51028212  5027
